{
    "links": {
        "self": "http://www.neowsapp.com/rest/v1/neo/54016531?api_key=iIulBulltgU6a56xZRHN4H3l9WmuAYTsLGpBGhQ2"
    },
    "id": "54016531",
    "neo_reference_id": "54016531",
    "name": "(2020 GC3)",
    "designation": "2020 GC3",
    "nasa_jpl_url": "http://ssd.jpl.nasa.gov/sbdb.cgi?sstr=54016531",
    "absolute_magnitude_h": 23.608,
    "estimated_diameter": {
        "kilometers": {
            "estimated_diameter_min": 0.0504608982,
            "estimated_diameter_max": 0.1128339986
        },
        "meters": {
            "estimated_diameter_min": 50.4608981941,
            "estimated_diameter_max": 112.8339985676
        },
        "miles": {
            "estimated_diameter_min": 0.0313549388,
            "estimated_diameter_max": 0.0701117745
        },
        "feet": {
            "estimated_diameter_min": 165.554133231,
            "estimated_diameter_max": 370.1902958606
        }
    },
    "is_potentially_hazardous_asteroid": false,
    "close_approach_data": [
        {
            "close_approach_date": "2020-04-24",
            "close_approach_date_full": "2020-Apr-24 01:27",
            "epoch_date_close_approach": 1587691620000,
            "relative_velocity": {
                "kilometers_per_second": "8.523659764",
                "kilometers_per_hour": "30685.1751503959",
                "miles_per_hour": "19066.574526089"
            },
            "miss_distance": {
                "astronomical": "0.160967616",
                "lunar": "62.616402624",
                "kilometers": "24080412.49257792",
                "miles": "14962874.485178496"
            },
            "orbiting_body": "Earth"
        }
    ],
    "orbital_data": {
        "orbit_id": "5",
        "orbit_determination_date": "2020-05-13 06:11:01",
        "first_observation_date": "2020-04-15",
        "last_observation_date": "2020-05-13",
        "data_arc_in_days": 28,
        "observations_used": 36,
        "orbit_uncertainty": "8",
        "minimum_orbit_intersection": ".143258",
        "jupiter_tisserand_invariant": "3.438",
        "epoch_osculation": "2458958.5",
        "eccentricity": ".4961047563205446",
        "semi_major_axis": "2.246296956387813",
        "inclination": "10.50549517836182",
        "ascending_node_longitude": "200.7897382323188",
        "orbital_period": "1229.700019339912",
        "perihelion_distance": "1.131898352215456",
        "perihelion_argument": "27.50335172981481",
        "aphelion_distance": "3.36069556056017",
        "perihelion_time": "2458973.709896460028",
        "mean_anomaly": "355.5472370175701",
        "mean_motion": ".2927543257202221",
        "equinox": "J2000",
        "orbit_class": {
            "orbit_class_type": "AMO",
            "orbit_class_description": "Near-Earth asteroid orbits similar to that of 1221 Amor",
            "orbit_class_range": "1.017 AU < q (perihelion) < 1.3 AU"
        }
    },
    "is_sentry_object": false
}